{
  "norad_id": 66526,
  "name": "STARLINK-35932",
  "history": [
    {
      "epoch": "2026-03-28T13:57:52.149312Z",
      "apogee_km": 483.89005196648577,
      "perigee_km": 482.036182714779,
      "latitude_deg": 7.962709779305499e-07,
      "longitude_deg": 135.69517518863833,
      "height_km": 482.85227587390807,
      "semi_major_axis_km": 6861.100117340632,
      "eccentricity": 0.0001351,
      "inclination_deg": 43.0021,
      "raan_deg": 171.1627,
      "arg_perigee_deg": 263.042,
      "mean_anomaly_deg": 97.0278,
      "mean_motion_rev_day": 15.27608714
    },
    {
      "epoch": "2026-03-29T05:39:26.410176Z",
      "apogee_km": 483.3379007504518,
      "perigee_km": 482.686091595815,
      "latitude_deg": 6.228312182975704e-05,
      "longitude_deg": -104.0342953360542,
      "height_km": 482.8931632273873,
      "semi_major_axis_km": 6861.148996173133,
      "eccentricity": 4.75e-05,
      "inclination_deg": 42.9979,
      "raan_deg": 167.4704,
      "arg_perigee_deg": 251.0989,
      "mean_anomaly_deg": 108.9812,
      "mean_motion_rev_day": 15.2759239
    },
    {
      "epoch": "2026-03-29T21:21:00.663264Z",
      "apogee_km": 483.64635070805616,
      "perigee_km": 482.3976197727425,
      "latitude_deg": -3.905849255400098e-05,
      "longitude_deg": 16.23669334699494,
      "height_km": 482.4826303374398,
      "semi_major_axis_km": 6861.158985240399,
      "eccentricity": 9.1e-05,
      "inclination_deg": 43.0005,
      "raan_deg": 163.7787,
      "arg_perigee_deg": 300.3655,
      "mean_anomaly_deg": 59.7106,
      "mean_motion_rev_day": 15.27589054
    },
    {
      "epoch": "2026-03-30T06:45:56.965248Z",
      "apogee_km": 484.0348163028848,
      "perigee_km": 482.08966631797193,
      "latitude_deg": 6.187055390415784e-06,
      "longitude_deg": -127.60083619125356,
      "height_km": 482.6946399965419,
      "semi_major_axis_km": 6861.199241310428,
      "eccentricity": 0.00014175,
      "inclination_deg": 42.9989,
      "raan_deg": 161.5624,
      "arg_perigee_deg": 278.5266,
      "mean_anomaly_deg": 81.5425,
      "mean_motion_rev_day": 15.2757561
    }
  ]
}